FLOCK 4G-3              
1 62639U 25009AG  26068.80174065  .00011494  00000+0  43389-3 0  9993
2 62639  97.4062 151.4068 0001320 293.2042  66.9058 15.27179310 63727
STARLINK-35565          
1 66803U 25278N   26068.15050485  .00025539  00000+0  93484-3 0  9991
2 66803  42.9962 117.6695 0001075 244.7950 115.2790 15.27563931 15122
